[{"OBJECT_NAME":"STARLINK-30536","OBJECT_ID":"2023-153C","EPOCH":"2026-03-09T09:19:01.029504","MEAN_MOTION":15.26739899,"ECCENTRICITY":0.0001369,"INCLINATION":43.0032,"RA_OF_ASC_NODE":68.4682,"ARG_OF_PERICENTER":262.654,"MEAN_ANOMALY":97.4156,"EPHEMERIS_TYPE":0,"CLASSIFICATION_TYPE":"U","NORAD_CAT_ID":57993,"ELEMENT_SET_NO":999,"REV_AT_EPOCH":13485,"BSTAR":5.0103194e-5,"MEAN_MOTION_DOT":1.084e-5,"MEAN_MOTION_DDOT":0},{"OBJECT_NAME":"TIANMU-1 17","OBJECT_ID":"2024-004C","EPOCH":"2026-03-09T22:46:08.436864","MEAN_MOTION":15.2591023,"ECCENTRICITY":0.00044458,"INCLINATION":97.4649,"RA_OF_ASC_NODE":254.963,"ARG_OF_PERICENTER":359.1343,"MEAN_ANOMALY":0.9887,"EPHEMERIS_TYPE":0,"CLASSIFICATION_TYPE":"U","NORAD_CAT_ID":58702,"ELEMENT_SET_NO":999,"REV_AT_EPOCH":12063,"BSTAR":0.00031387278,"MEAN_MOTION_DOT":7.979e-5,"MEAN_MOTION_DDOT":0}]
